OBJECT_NAME,OBJECT_ID,EPOCH,MEAN_MOTION,ECCENTRICITY,INCLINATION,RA_OF_ASC_NODE,ARG_OF_PERICENTER,MEAN_ANOMALY,EPHEMERIS_TYPE,CLASSIFICATION_TYPE,NORAD_CAT_ID,ELEMENT_SET_NO,REV_AT_EPOCH,BSTAR,MEAN_MOTION_DOT,MEAN_MOTION_DDOT
FENGYUN 3D,2017-072A,2026-07-14T21:56:41.752032,14.19744668,.0001526,99.0137,170.8400,14.4962,345.6257,0,U,43010,999,44892,.57073E-4,.75E-6,0
NOAA 20 (JPSS-1),2017-073A,2026-07-14T20:14:30.375168,14.19516397,.0001373,98.7772,135.0610,125.0813,235.0491,0,U,43013,999,44839,.23681E-4,.6E-7,0
GOES 17,2018-022A,2026-07-14T19:50:08.246112,1.00271097,.0000536,1.0058,85.2619,82.3130,333.1466,0,U,43226,999,3070,0,-.192E-5,0
SENTINEL-3B,2018-039A,2026-07-14T19:42:03.001248,14.26736193,.0001135,98.6236,262.9549,119.3796,240.7498,0,U,43437,999,42806,.31777E-4,.33E-6,0
FENGYUN 2H,2018-050A,2026-07-14T18:55:35.973984,1.00267176,.0002307,3.0993,78.7420,134.0717,82.8696,0,U,43491,999,2971,0,-.137E-5,0
METOP-C,2018-087A,2026-07-14T19:12:52.912224,14.21518964,.0002223,98.6631,254.8975,94.2078,265.9354,0,U,43689,999,39875,.39064E-4,.42E-6,0
GEO-KOMPSAT-2A,2018-100A,2026-07-14T17:27:00.252000,1.00269956,.0001961,0.0287,108.8702,352.7689,220.9550,0,U,43823,999,2790,0,-.352E-5,0
METEOR-M2 2,2019-038A,2026-07-14T20:25:55.984224,14.24372389,.0000745,98.9152,183.5467,3.9926,356.1258,0,U,44387,999,36523,-.56845E-4,-.177E-5,0
ARKTIKA-M 1,2021-016A,2026-07-14T09:46:38.558208,2.00611590,.7297332,63.2662,53.6722,270.0591,14.4994,0,U,47719,999,3933,0,-.301E-5,0
FENGYUN 3E,2021-062A,2026-07-14T21:29:03.336000,14.19906108,.0002286,98.7495,198.9944,39.9634,320.1711,0,U,49008,999,26051,-.50908E-4,-.152E-5,0
GOES 18,2022-021A,2026-07-14T17:53:57.666912,1.00270740,.0000399,0.0191,127.3347,62.6101,234.1429,0,U,51850,999,686,0,.88E-6,0
NOAA 21 (JPSS-2),2022-150A,2026-07-14T19:19:31.471104,14.19540984,.0002823,98.7060,134.1306,105.2489,254.8999,0,U,54234,999,19046,.19527E-4,-.2E-7,0
METEOSAT-12 (MTG-I1),2022-170C,2026-07-14T18:32:54.583008,1.00267589,.0003794,0.7248,19.6446,82.1207,108.7756,0,U,54743,999,1325,0,-.17E-6,0
TIANMU-1 03,2023-039A,2026-07-14T20:26:50.168256,15.48036792,.0002603,97.5235,10.9213,28.1665,331.9725,0,U,55973,999,18511,.17114E-3,.8858E-4,0
TIANMU-1 04,2023-039B,2026-07-14T19:55:58.069344,15.48662019,.0003066,97.5174,10.0549,14.4278,345.7059,0,U,55974,999,18512,.17886E-3,.9468E-4,0
TIANMU-1 05,2023-039C,2026-07-14T20:01:05.668896,15.47961410,.0003002,97.5219,10.5073,46.4454,313.7044,0,U,55975,999,18509,.1783E-3,.921E-4,0
TIANMU-1 06,2023-039D,2026-07-14T20:03:23.891616,15.48559377,.00031,97.5226,11.1728,37.9322,322.2146,0,U,55976,999,18512,.18043E-3,.9518E-4,0
FENGYUN 3G,2023-055A,2026-07-14T20:00:57.237984,15.53776424,.0007053,49.9902,203.4390,54.2287,305.9335,0,U,56232,999,18430,.2356E-3,.14987E-3,0
METEOR-M2 3,2023-091A,2026-07-14T20:26:57.482880,14.24048876,.000515,98.6068,250.2622,91.0145,269.1624,0,U,57166,999,15845,.1214E-4,-.15E-6,0
TIANMU-1 07,2023-101A,2026-07-14T19:56:47.835744,15.30113069,.0003786,97.2578,245.8675,65.4947,294.6688,0,U,57399,999,16587,.12545E-3,.3581E-4,0
TIANMU-1 08,2023-101B,2026-07-14T20:42:49.585824,15.30116812,.0004652,97.2566,245.6653,47.1278,313.0353,0,U,57400,999,16587,.12144E-3,.3465E-4,0
TIANMU-1 09,2023-101C,2026-07-14T20:18:00.959616,15.30158015,.0004379,97.2525,245.0503,65.5695,294.6003,0,U,57401,999,16587,.12981E-3,.3714E-4,0
TIANMU-1 10,2023-101D,2026-07-14T21:06:18.496800,15.30131545,.0005685,97.2604,246.1618,55.1616,305.0159,0,U,57402,999,16587,.12931E-3,.3697E-4,0
FENGYUN 3F,2023-111A,2026-07-14T19:23:27.979872,14.19943345,.0001286,98.6825,265.3005,76.3745,283.7574,0,U,57490,999,15278,.24071E-4,.8E-7,0
ARKTIKA-M 2,2023-198A,2026-07-14T04:16:23.945088,2.00608202,.6910425,63.2180,151.3455,267.3421,18.7368,0,U,58584,999,1886,0,.133E-5,0
TIANMU-1 11,2023-205A,2026-07-14T20:03:33.126912,15.27261595,.0006773,97.3440,216.9626,263.6673,96.3795,0,U,58645,999,14174,.11672E-3,.3045E-4,0
TIANMU-1 12,2023-205B,2026-07-14T20:58:06.466944,15.27093528,.0005776,97.3429,216.7471,236.0270,124.0421,0,U,58646,999,14173,.11978E-3,.3111E-4,0
TIANMU-1 13,2023-205C,2026-07-14T20:11:54.240000,15.27085935,.0005755,97.3457,216.9953,213.7283,146.3590,0,U,58647,999,14172,.12226E-3,.3176E-4,0
TIANMU-1 14,2023-205D,2026-07-14T21:23:48.003648,15.27130113,.0006395,97.3393,216.2046,221.4050,138.6705,0,U,58648,999,14173,.11881E-3,.3089E-4,0
TIANMU-1 19,2023-208A,2026-07-14T20:30:17.890272,15.31972440,.000456,97.4529,312.3059,199.5984,160.5083,0,U,58660,999,14156,.15327E-3,.4652E-4,0
TIANMU-1 20,2023-208B,2026-07-14T20:53:49.511616,15.33161633,.0006306,97.4471,312.9865,213.2773,146.8074,0,U,58661,999,14166,.14848E-3,.4678E-4,0
