FENGYUN 3D              
1 43010U 17072A   26195.91437213  .00000075  00000+0  57073-4 0  9995
2 43010  99.0137 170.8400 0001526  14.4962 345.6257 14.19744668448928
NOAA 20 (JPSS-1)        
1 43013U 17073A   26195.84340712  .00000006  00000+0  23681-4 0  9990
2 43013  98.7772 135.0610 0001373 125.0813 235.0491 14.19516397448391
GOES 17                 
1 43226U 18022A   26195.82648433 -.00000192  00000+0  00000+0 0  9992
2 43226   1.0058  85.2619 0000536  82.3130 333.1466  1.00271097 30708
SENTINEL-3B             
1 43437U 18039A   26195.82086807  .00000033  00000+0  31777-4 0  9998
2 43437  98.6236 262.9549 0001135 119.3796 240.7498 14.26736193428066
FENGYUN 2H              
1 43491U 18050A   26195.78861081 -.00000137  00000+0  00000+0 0  9997
2 43491   3.0993  78.7420 0002307 134.0717  82.8696  1.00267176 29718
METOP-C                 
1 43689U 18087A   26195.80061241  .00000042  00000+0  39064-4 0  9990
2 43689  98.6631 254.8975 0002223  94.2078 265.9354 14.21518964398751
GEO-KOMPSAT-2A          
1 43823U 18100A   26195.72708625 -.00000352  00000+0  00000+0 0  9999
2 43823   0.0287 108.8702 0001961 352.7689 220.9550  1.00269956 27901
METEOR-M2 2             
1 44387U 19038A   26195.85134241 -.00000177  00000+0 -56845-4 0  9996
2 44387  98.9152 183.5467 0000745   3.9926 356.1258 14.24372389365233
ARKTIKA-M 1             
1 47719U 21016A   26195.40739072 -.00000301  00000+0  00000+0 0  9996
2 47719  63.2662  53.6722 7297332 270.0591  14.4994  2.00611590 39330
FENGYUN 3E              
1 49008U 21062A   26195.89517750 -.00000152  00000+0 -50908-4 0  9992
2 49008  98.7495 198.9944 0002286  39.9634 320.1711 14.19906108260519
GOES 18                 
1 51850U 22021A   26195.74580633  .00000088  00000+0  00000+0 0  9999
2 51850   0.0191 127.3347 0000399  62.6101 234.1429  1.00270740  6862
NOAA 21 (JPSS-2)        
1 54234U 22150A   26195.80522536 -.00000002  00000+0  19527-4 0  9992
2 54234  98.7060 134.1306 0002823 105.2489 254.8999 14.19540984190463
METEOSAT-12 (MTG-I1)    
1 54743U 22170C   26195.77285397 -.00000017  00000+0  00000+0 0  9993
2 54743   0.7248  19.6446 0003794  82.1207 108.7756  1.00267589 13252
TIANMU-1 03             
1 55973U 23039A   26195.85196954  .00008858  00000+0  17114-3 0  9991
2 55973  97.5235  10.9213 0002603  28.1665 331.9725 15.48036792185118
TIANMU-1 04             
1 55974U 23039B   26195.83053321  .00009468  00000+0  17886-3 0  9994
2 55974  97.5174  10.0549 0003066  14.4278 345.7059 15.48662019185127
TIANMU-1 05             
1 55975U 23039C   26195.83409339  .00009210  00000+0  17830-3 0  9993
2 55975  97.5219  10.5073 0003002  46.4454 313.7044 15.47961410185097
TIANMU-1 06             
1 55976U 23039D   26195.83569319  .00009518  00000+0  18043-3 0  9997
2 55976  97.5226  11.1728 0003100  37.9322 322.2146 15.48559377185126
FENGYUN 3G              
1 56232U 23055A   26195.83399581  .00014987  00000+0  23560-3 0  9999
2 56232  49.9902 203.4390 0007053  54.2287 305.9335 15.53776424184305
METEOR-M2 3             
1 57166U 23091A   26195.85205420 -.00000015  00000+0  12140-4 0  9997
2 57166  98.6068 250.2622 0005150  91.0145 269.1624 14.24048876158451
TIANMU-1 07             
1 57399U 23101A   26195.83110921  .00003581  00000+0  12545-3 0  9994
2 57399  97.2578 245.8675 0003786  65.4947 294.6688 15.30113069165878
TIANMU-1 08             
1 57400U 23101B   26195.86307391  .00003465  00000+0  12144-3 0  9995
2 57400  97.2566 245.6653 0004652  47.1278 313.0353 15.30116812165873
TIANMU-1 09             
1 57401U 23101C   26195.84584444  .00003714  00000+0  12981-3 0  9996
2 57401  97.2525 245.0503 0004379  65.5695 294.6003 15.30158015165877
TIANMU-1 10             
1 57402U 23101D   26195.87938075  .00003697  00000+0  12931-3 0  9998
2 57402  97.2604 246.1618 0005685  55.1616 305.0159 15.30131545165872
FENGYUN 3F              
1 57490U 23111A   26195.80796273  .00000008  00000+0  24071-4 0  9993
2 57490  98.6825 265.3005 0001286  76.3745 283.7574 14.19943345152787
ARKTIKA-M 2             
1 58584U 23198A   26195.17805492  .00000133  00000+0  00000+0 0  9997
2 58584  63.2180 151.3455 6910425 267.3421  18.7368  2.00608202 18864
TIANMU-1 11             
1 58645U 23205A   26195.83580008  .00003045  00000+0  11672-3 0  9996
2 58645  97.3440 216.9626 0006773 263.6673  96.3795 15.27261595141744
TIANMU-1 12             
1 58646U 23205B   26195.87368596  .00003111  00000+0  11978-3 0  9990
2 58646  97.3429 216.7471 0005776 236.0270 124.0421 15.27093528141730
TIANMU-1 13             
1 58647U 23205C   26195.84160000  .00003176  00000+0  12226-3 0  9996
2 58647  97.3457 216.9953 0005755 213.7283 146.3590 15.27085935141728
TIANMU-1 14             
1 58648U 23205D   26195.89152782  .00003089  00000+0  11881-3 0  9999
2 58648  97.3393 216.2046 0006395 221.4050 138.6705 15.27130113141735
TIANMU-1 19             
1 58660U 23208A   26195.85437373  .00004652  00000+0  15327-3 0  9990
2 58660  97.4529 312.3059 0004560 199.5984 160.5083 15.31972440141562
TIANMU-1 20             
1 58661U 23208B   26195.87071194  .00004678  00000+0  14848-3 0  9993
2 58661  97.4471 312.9865 0006306 213.2773 146.8074 15.33161633141664
